[Satellite]
VERSION=1.1
NAME=MOLNIYA 2-9
NICKNAME=MOLNIYA 2-9
TLE1=1 07276U 74026A   15052.86807178  .00013265 -27299-6  61557-3 0  9999
TLE2=2 07276  62.4521 338.0515 7191071 278.1389  13.0531  2.43120698183902
